start=new Date('2023-06-10T00:00:00.000Z').valueOf();
sats=[{"ECCENTRICITY":"0.00010100","MEAN_MOTION_DOT":"0.00023686","NORAD_CAT_ID":"46034","PERIOD":"95.590","RCS_SIZE":"LARGE","CENTER_NAME":"EARTH","SEMIMAJOR_AXIS":"6925.252","APOAPSIS":"547.817","OBJECT_NAME":"STARLINK-1557","DECAY_DATE":null,"OBJECT_ID":"2020-055H","ELEMENT_SET_NO":"999","PERIAPSIS":"546.418","OBJECT_TYPE":"PAYLOAD","LAUNCH_DATE":"2020-08-07","MEAN_MOTION":"15.06431358","REV_AT_EPOCH":"15754","BSTAR":"0.00160230000000","FILE":"3929125","MEAN_MOTION_DDOT":"0.0000000000000","ARG_OF_PERICENTER":"94.0744","GP_ID":"233576950","SITE":"AFETR","INCLINATION":"53.0542","EPHEMERIS_TYPE":"0","TLE_LINE2":"2 46034  53.0542 313.6477 0001010  94.0744 266.0361 15.06431358157541","COUNTRY_CODE":"US","REF_FRAME":"TEME","RA_OF_ASC_NODE":"313.6477","TLE_LINE1":"1 46034U 20055H   23160.71222327  .00023686  00000-0  16023-2 0  9996","CLASSIFICATION_TYPE":"U","EPOCH":"2023-06-09T17:05:36.090528","MEAN_ANOMALY":"266.0361","MEAN_ELEMENT_THEORY":"SGP4","TIME_SYSTEM":"UTC"},{"MEAN_MOTION":"15.06423874","REV_AT_EPOCH":"15757","LAUNCH_DATE":"2020-08-07","OBJECT_TYPE":"PAYLOAD","SITE":"AFETR","GP_ID":"233575700","ARG_OF_PERICENTER":"88.1025","FILE":"3929125","BSTAR":"0.00123700000000","MEAN_MOTION_DDOT":"0.0000000000000","COUNTRY_CODE":"US","REF_FRAME":"TEME","EPHEMERIS_TYPE":"0","TLE_LINE2":"2 46035  53.0537 313.6181 0000944  88.1025 272.0072 15.06423874157572","INCLINATION":"53.0537","MEAN_ELEMENT_THEORY":"SGP4","MEAN_ANOMALY":"272.0072","TIME_SYSTEM":"UTC","EPOCH":"2023-06-09T17:16:13.167840","TLE_LINE1":"1 46035U 20055J   23160.71959685  .00018203  00000-0  12370-2 0  9991","CLASSIFICATION_TYPE":"U","RA_OF_ASC_NODE":"313.6181","NORAD_CAT_ID":"46035","MEAN_MOTION_DOT":"0.00018203","ECCENTRICITY":"0.00009440","SEMIMAJOR_AXIS":"6925.275","CENTER_NAME":"EARTH","RCS_SIZE":"LARGE","PERIOD":"95.591","OBJECT_NAME":"STARLINK-1558","APOAPSIS":"547.794","ELEMENT_SET_NO":"999","PERIAPSIS":"546.487","DECAY_DATE":null,"OBJECT_ID":"2020-055J"},{"DECAY_DATE":null,"OBJECT_ID":"2020-055K","PERIAPSIS":"546.417","ELEMENT_SET_NO":"999","APOAPSIS":"547.794","OBJECT_NAME":"STARLINK-1560","PERIOD":"95.590","CENTER_NAME":"EARTH","RCS_SIZE":"LARGE","SEMIMAJOR_AXIS":"6925.240","ECCENTRICITY":"0.00009940","MEAN_MOTION_DOT":"0.00021320","NORAD_CAT_ID":"46036","RA_OF_ASC_NODE":"313.0849","CLASSIFICATION_TYPE":"U","TLE_LINE1":"1 46036U 20055K   23160.83754073  .00021320  00000-0  14445-2 0  9998","EPOCH":"2023-06-09T20:06:03.519072","MEAN_ANOMALY":"267.2135","MEAN_ELEMENT_THEORY":"SGP4","TIME_SYSTEM":"UTC","INCLINATION":"53.0555","EPHEMERIS_TYPE":"0","TLE_LINE2":"2 46036  53.0555 313.0849 0000994  92.8968 267.2135 15.06435310157597","COUNTRY_CODE":"US","REF_FRAME":"TEME","BSTAR":"0.00144450000000","FILE":"3929125","MEAN_MOTION_DDOT":"0.0000000000000","ARG_OF_PERICENTER":"92.8968","GP_ID":"233575950","SITE":"AFETR","OBJECT_TYPE":"PAYLOAD","LAUNCH_DATE":"2020-08-07","MEAN_MOTION":"15.06435310","REV_AT_EPOCH":"15759"},{"RA_OF_ASC_NODE":"313.6963","EPOCH":"2023-06-09T16:49:40.033056","TLE_LINE1":"1 46037U 20055L   23160.70115779  .00025092  00000-0  16956-2 0  9998","CLASSIFICATION_TYPE":"U","MEAN_ANOMALY":"265.7603","MEAN_ELEMENT_THEORY":"SGP4","TIME_SYSTEM":"UTC","INCLINATION":"53.0537","EPHEMERIS_TYPE":"0","TLE_LINE2":"2 46037  53.0537 313.6963 0001148  94.3517 265.7603 15.06439390157562","COUNTRY_CODE":"US","REF_FRAME":"TEME","FILE":"3929125","BSTAR":"0.00169560000000","MEAN_MOTION_DDOT":"0.0000000000000","ARG_OF_PERICENTER":"94.3517","GP_ID":"233576201","SITE":"AFETR","OBJECT_TYPE":"PAYLOAD","LAUNCH_DATE":"2020-08-07","MEAN_MOTION":"15.06439390","REV_AT_EPOCH":"15756","DECAY_DATE":null,"OBJECT_ID":"2020-055L","PERIAPSIS":"546.298","ELEMENT_SET_NO":"999","APOAPSIS":"547.888","OBJECT_NAME":"STARLINK-1565","PERIOD":"95.590","RCS_SIZE":"LARGE","CENTER_NAME":"EARTH","SEMIMAJOR_AXIS":"6925.228","ECCENTRICITY":"0.00011480","MEAN_MOTION_DOT":"0.00025092","NORAD_CAT_ID":"46037"},{"REF_FRAME":"TEME","COUNTRY_CODE":"US","TLE_LINE2":"2 46038  53.0541 313.0386 0000934  85.8493 274.2602 15.06422895157589","EPHEMERIS_TYPE":"0","INCLINATION":"53.0541","TIME_SYSTEM":"UTC","MEAN_ANOMALY":"274.2602","MEAN_ELEMENT_THEORY":"SGP4","CLASSIFICATION_TYPE":"U","TLE_LINE1":"1 46038U 20055M   23160.84860002  .00014374  00000-0  98129-3 0  9994","EPOCH":"2023-06-09T20:21:59.041728","RA_OF_ASC_NODE":"313.0386","REV_AT_EPOCH":"15758","MEAN_MOTION":"15.06422895","LAUNCH_DATE":"2020-08-07","OBJECT_TYPE":"PAYLOAD","SITE":"AFETR","GP_ID":"233576450","ARG_OF_PERICENTER":"85.8493","MEAN_MOTION_DDOT":"0.0000000000000","BSTAR":"0.00098129000000","FILE":"3929125","OBJECT_NAME":"STARLINK-1567","APOAPSIS":"547.790","PERIAPSIS":"546.497","ELEMENT_SET_NO":"999","OBJECT_ID":"2020-055M","DECAY_DATE":null,"NORAD_CAT_ID":"46038","ECCENTRICITY":"0.00009340","MEAN_MOTION_DOT":"0.00014374","SEMIMAJOR_AXIS":"6925.278","CENTER_NAME":"EARTH","RCS_SIZE":"LARGE","PERIOD":"95.591"},{"MEAN_ANOMALY":"271.3165","MEAN_ELEMENT_THEORY":"SGP4","TIME_SYSTEM":"UTC","TLE_LINE1":"1 46039U 20055N   23160.72328099  .00022472  00000-0  15217-2 0  9991","EPOCH":"2023-06-09T17:21:31.477536","CLASSIFICATION_TYPE":"U","RA_OF_ASC_NODE":"313.6001","COUNTRY_CODE":"US","REF_FRAME":"TEME","EPHEMERIS_TYPE":"0","TLE_LINE2":"2 46039  53.0538 313.6001 0000768  88.7911 271.3165 15.06424771157563","INCLINATION":"53.0538","SITE":"AFETR","GP_ID":"233575200","ARG_OF_PERICENTER":"88.7911","BSTAR":"0.00152170000000","FILE":"3929125","MEAN_MOTION_DDOT":"0.0000000000000","MEAN_MOTION":"15.06424771","REV_AT_EPOCH":"15756","LAUNCH_DATE":"2020-08-07","OBJECT_TYPE":"PAYLOAD","ELEMENT_SET_NO":"999","PERIAPSIS":"546.606","DECAY_DATE":null,"OBJECT_ID":"2020-055N","OBJECT_NAME":"STARLINK-1569","APOAPSIS":"547.670","SEMIMAJOR_AXIS":"6925.273","RCS_SIZE":"LARGE","CENTER_NAME":"EARTH","PERIOD":"95.591","NORAD_CAT_ID":"46039","MEAN_MOTION_DOT":"0.00022472","ECCENTRICITY":"0.00007680"},{"OBJECT_TYPE":"PAYLOAD","MEAN_MOTION":"15.06430312","REV_AT_EPOCH":"15752","LAUNCH_DATE":"2020-08-07","ARG_OF_PERICENTER":"104.7494","BSTAR":"0.00168980000000","FILE":"3929125","MEAN_MOTION_DDOT":"0.0000000000000","SITE":"AFETR","GP_ID":"233575450","INCLINATION":"53.0539","COUNTRY_CODE":"US","REF_FRAME":"TEME","EPHEMERIS_TYPE":"0","TLE_LINE2":"2 46040  53.0539 313.7643 0000854 104.7494 255.3590 15.06430312157528","RA_OF_ASC_NODE":"313.7643","MEAN_ELEMENT_THEORY":"SGP4","MEAN_ANOMALY":"255.3590","TIME_SYSTEM":"UTC","EPOCH":"2023-06-09T16:28:26.926464","TLE_LINE1":"1 46040U 20055P   23160.68642276  .00024998  00000-0  16898-2 0  9995","CLASSIFICATION_TYPE":"U","ECCENTRICITY":"0.00008540","MEAN_MOTION_DOT":"0.00024998","NORAD_CAT_ID":"46040","RCS_SIZE":"LARGE","CENTER_NAME":"EARTH","PERIOD":"95.590","SEMIMAJOR_AXIS":"6925.256","APOAPSIS":"547.712","OBJECT_NAME":"STARLINK-1576","PERIAPSIS":"546.529","ELEMENT_SET_NO":"999","DECAY_DATE":null,"OBJECT_ID":"2020-055P"},{"SEMIMAJOR_AXIS":"6925.263","PERIOD":"95.590","RCS_SIZE":"LARGE","CENTER_NAME":"EARTH","NORAD_CAT_ID":"46041","ECCENTRICITY":"0.00011450","MEAN_MOTION_DOT":"0.00024716","OBJECT_ID":"2020-055Q","DECAY_DATE":null,"PERIAPSIS":"546.335","ELEMENT_SET_NO":"999","OBJECT_NAME":"STARLINK-1580","APOAPSIS":"547.921","GP_ID":"233576702","SITE":"AFETR","MEAN_MOTION_DDOT":"0.0000000000000","BSTAR":"0.00167110000000","FILE":"3929125","ARG_OF_PERICENTER":"96.3902","LAUNCH_DATE":"2020-08-07","REV_AT_EPOCH":"15753","MEAN_MOTION":"15.06427957","OBJECT_TYPE":"PAYLOAD","TLE_LINE1":"1 46041U 20055Q   23160.69749099  .00024716  00000-0  16711-2 0  9990","CLASSIFICATION_TYPE":"U","EPOCH":"2023-06-09T16:44:23.221536","TIME_SYSTEM":"UTC","MEAN_ELEMENT_THEORY":"SGP4","MEAN_ANOMALY":"263.7218","RA_OF_ASC_NODE":"313.8043","TLE_LINE2":"2 46041  53.0534 313.8043 0001145  96.3902 263.7218 15.06427957157535","EPHEMERIS_TYPE":"0","REF_FRAME":"TEME","COUNTRY_CODE":"US","INCLINATION":"53.0534"},{"MEAN_MOTION_DOT":"0.00021497","ECCENTRICITY":"0.00008410","NORAD_CAT_ID":"46042","RCS_SIZE":"LARGE","CENTER_NAME":"EARTH","PERIOD":"95.591","SEMIMAJOR_AXIS":"6925.273","APOAPSIS":"547.720","OBJECT_NAME":"STARLINK-1581","PERIAPSIS":"546.555","ELEMENT_SET_NO":"999","OBJECT_ID":"2020-055R","DECAY_DATE":null,"OBJECT_TYPE":"PAYLOAD","REV_AT_EPOCH":"15752","MEAN_MOTION":"15.06424779","LAUNCH_DATE":"2020-08-07","ARG_OF_PERICENTER":"94.6540","MEAN_MOTION_DDOT":"0.0000000000000","FILE":"3929125","BSTAR":"0.00145670000000","SITE":"AFETR","GP_ID":"233576951","INCLINATION":"53.0539","REF_FRAME":"TEME","COUNTRY_CODE":"US","TLE_LINE2":"2 46042  53.0539 313.8290 0000841  94.6540 265.4545 15.06424779157526","EPHEMERIS_TYPE":"0","RA_OF_ASC_NODE":"313.8290","TIME_SYSTEM":"UTC","MEAN_ELEMENT_THEORY":"SGP4","MEAN_ANOMALY":"265.4545","CLASSIFICATION_TYPE":"U","TLE_LINE1":"1 46042U 20055R   23160.67167718  .00021497  00000-0  14567-2 0  9991","EPOCH":"2023-06-09T16:07:12.908352"},{"SITE":"AFETR","GP_ID":"233575701","ARG_OF_PERICENTER":"107.0188","FILE":"3929125","BSTAR":"0.00130580000000","MEAN_MOTION_DDOT":"0.0000000000000","MEAN_MOTION":"15.06425988","REV_AT_EPOCH":"15756","LAUNCH_DATE":"2020-08-07","OBJECT_TYPE":"PAYLOAD","MEAN_ELEMENT_THEORY":"SGP4","MEAN_ANOMALY":"253.0906","TIME_SYSTEM":"UTC","TLE_LINE1":"1 46043U 20055S   23160.73064751  .00019235  00000-0  13058-2 0  9993","EPOCH":"2023-06-09T17:32:07.944864","CLASSIFICATION_TYPE":"U","RA_OF_ASC_NODE":"313.5687","COUNTRY_CODE":"US","REF_FRAME":"TEME","EPHEMERIS_TYPE":"0","TLE_LINE2":"2 46043  53.0535 313.5687 0000961 107.0188 253.0906 15.06425988157561","INCLINATION":"53.0535","SEMIMAJOR_AXIS":"6925.269","CENTER_NAME":"EARTH","RCS_SIZE":"LARGE","PERIOD":"95.590","NORAD_CAT_ID":"46043","ECCENTRICITY":"0.00009610","MEAN_MOTION_DOT":"0.00019235","ELEMENT_SET_NO":"999","PERIAPSIS":"546.468","DECAY_DATE":null,"OBJECT_ID":"2020-055S","OBJECT_NAME":"STARLINK-1582","APOAPSIS":"547.799"}];
